[{"OBJECT_NAME":"STARLINK-37006","OBJECT_ID":"2026-050W","EPOCH":"2026-04-02T16:44:07.762848","MEAN_MOTION":15.81021423,"ECCENTRICITY":0.000118,"INCLINATION":53.1582,"RA_OF_ASC_NODE":161.3497,"ARG_OF_PERICENTER":81.0919,"MEAN_ANOMALY":279.0237,"EPHEMERIS_TYPE":0,"CLASSIFICATION_TYPE":"U","NORAD_CAT_ID":68187,"ELEMENT_SET_NO":999,"REV_AT_EPOCH":427,"BSTAR":0.0013494,"MEAN_MOTION_DOT":0.00276214,"MEAN_MOTION_DDOT":0},{"OBJECT_NAME":"STARLINK-36340","OBJECT_ID":"2026-050X","EPOCH":"2026-04-02T16:43:02.885952","MEAN_MOTION":15.81043028,"ECCENTRICITY":9.29e-5,"INCLINATION":53.1584,"RA_OF_ASC_NODE":161.3443,"ARG_OF_PERICENTER":96.0979,"MEAN_ANOMALY":264.015,"EPHEMERIS_TYPE":0,"CLASSIFICATION_TYPE":"U","NORAD_CAT_ID":68188,"ELEMENT_SET_NO":999,"REV_AT_EPOCH":417,"BSTAR":0.001634,"MEAN_MOTION_DOT":0.00337353,"MEAN_MOTION_DDOT":0},{"OBJECT_NAME":"STARLINK-36305","OBJECT_ID":"2026-050Y","EPOCH":"2026-04-02T16:41:58.166304","MEAN_MOTION":15.81027973,"ECCENTRICITY":0.0001046,"INCLINATION":53.1582,"RA_OF_ASC_NODE":161.3396,"ARG_OF_PERICENTER":93.769,"MEAN_ANOMALY":266.3453,"EPHEMERIS_TYPE":0,"CLASSIFICATION_TYPE":"U","NORAD_CAT_ID":68189,"ELEMENT_SET_NO":999,"REV_AT_EPOCH":417,"BSTAR":0.0014842,"MEAN_MOTION_DOT":0.00304992,"MEAN_MOTION_DDOT":0},{"OBJECT_NAME":"STARLINK-37071","OBJECT_ID":"2026-050Z","EPOCH":"2026-04-02T15:08:46.684896","MEAN_MOTION":15.81012725,"ECCENTRICITY":0.0001052,"INCLINATION":53.1583,"RA_OF_ASC_NODE":161.6459,"ARG_OF_PERICENTER":74.056,"MEAN_ANOMALY":286.0578,"EPHEMERIS_TYPE":0,"CLASSIFICATION_TYPE":"U","NORAD_CAT_ID":68190,"ELEMENT_SET_NO":999,"REV_AT_EPOCH":426,"BSTAR":0.0015069,"MEAN_MOTION_DOT":0.00309622,"MEAN_MOTION_DDOT":0},{"OBJECT_NAME":"STARLINK-37091","OBJECT_ID":"2026-050AA","EPOCH":"2026-04-02T16:38:43.761984","MEAN_MOTION":15.81019765,"ECCENTRICITY":0.0001162,"INCLINATION":53.158,"RA_OF_ASC_NODE":161.3244,"ARG_OF_PERICENTER":82.5479,"MEAN_ANOMALY":277.5676,"EPHEMERIS_TYPE":0,"CLASSIFICATION_TYPE":"U","NORAD_CAT_ID":68191,"ELEMENT_SET_NO":999,"REV_AT_EPOCH":427,"BSTAR":0.0013053,"MEAN_MOTION_DOT":0.00266841,"MEAN_MOTION_DDOT":0},{"OBJECT_NAME":"STARLINK-37098","OBJECT_ID":"2026-050AB","EPOCH":"2026-04-02T16:37:38.997408","MEAN_MOTION":15.81012987,"ECCENTRICITY":9.73e-5,"INCLINATION":53.1581,"RA_OF_ASC_NODE":161.3192,"ARG_OF_PERICENTER":77.5727,"MEAN_ANOMALY":282.5405,"EPHEMERIS_TYPE":0,"CLASSIFICATION_TYPE":"U","NORAD_CAT_ID":68192,"ELEMENT_SET_NO":999,"REV_AT_EPOCH":427,"BSTAR":0.0013354,"MEAN_MOTION_DOT":0.00273126,"MEAN_MOTION_DDOT":0},{"OBJECT_NAME":"STARLINK-37090","OBJECT_ID":"2026-050AC","EPOCH":"2026-04-02T16:35:29.140800","MEAN_MOTION":15.8100871,"ECCENTRICITY":8.58e-5,"INCLINATION":53.1579,"RA_OF_ASC_NODE":161.3079,"ARG_OF_PERICENTER":68.5826,"MEAN_ANOMALY":291.5289,"EPHEMERIS_TYPE":0,"CLASSIFICATION_TYPE":"U","NORAD_CAT_ID":68193,"ELEMENT_SET_NO":999,"REV_AT_EPOCH":427,"BSTAR":0.00125,"MEAN_MOTION_DOT":0.00255038,"MEAN_MOTION_DDOT":0},{"OBJECT_NAME":"STARLINK-37093","OBJECT_ID":"2026-050AD","EPOCH":"2026-04-02T16:40:53.445792","MEAN_MOTION":15.81020339,"ECCENTRICITY":0.0001116,"INCLINATION":53.1581,"RA_OF_ASC_NODE":161.3341,"ARG_OF_PERICENTER":87.7325,"MEAN_ANOMALY":272.3826,"EPHEMERIS_TYPE":0,"CLASSIFICATION_TYPE":"U","NORAD_CAT_ID":68194,"ELEMENT_SET_NO":999,"REV_AT_EPOCH":427,"BSTAR":0.0014559,"MEAN_MOTION_DOT":0.00298839,"MEAN_MOTION_DDOT":0},{"OBJECT_NAME":"STARLINK-37058","OBJECT_ID":"2026-050AE","EPOCH":"2026-04-02T16:36:33.743808","MEAN_MOTION":15.8104803,"ECCENTRICITY":0.0001103,"INCLINATION":53.158,"RA_OF_ASC_NODE":161.3136,"ARG_OF_PERICENTER":89.5389,"MEAN_ANOMALY":270.576,"EPHEMERIS_TYPE":0,"CLASSIFICATION_TYPE":"U","NORAD_CAT_ID":68195,"ELEMENT_SET_NO":999,"REV_AT_EPOCH":271,"BSTAR":0.0015912,"MEAN_MOTION_DOT":0.00328218,"MEAN_MOTION_DDOT":0},{"OBJECT_NAME":"YAOGAN-50 02","OBJECT_ID":"2026-051A","EPOCH":"2026-04-02T20:08:25.526976","MEAN_MOTION":13.83260391,"ECCENTRICITY":7.28e-5,"INCLINATION":141.9862,"RA_OF_ASC_NODE":323.7159,"ARG_OF_PERICENTER":273.9342,"MEAN_ANOMALY":86.1294,"EPHEMERIS_TYPE":0,"CLASSIFICATION_TYPE":"U","NORAD_CAT_ID":68196,"ELEMENT_SET_NO":999,"REV_AT_EPOCH":255,"BSTAR":7.2712e-5,"MEAN_MOTION_DOT":2.67e-6,"MEAN_MOTION_DDOT":0},{"OBJECT_NAME":"CZ-6A R/B","OBJECT_ID":"2026-051B","EPOCH":"2026-04-02T15:28:55.860672","MEAN_MOTION":14.56380003,"ECCENTRICITY":0.0187181,"INCLINATION":142.031,"RA_OF_ASC_NODE":332.747,"ARG_OF_PERICENTER":223.6066,"MEAN_ANOMALY":134.973,"EPHEMERIS_TYPE":0,"CLASSIFICATION_TYPE":"U","NORAD_CAT_ID":68197,"ELEMENT_SET_NO":999,"REV_AT_EPOCH":265,"BSTAR":0.00015884,"MEAN_MOTION_DOT":1.203e-5,"MEAN_MOTION_DDOT":0},{"OBJECT_NAME":"2026-052A","OBJECT_ID":"2026-052A","EPOCH":"2026-04-02T20:18:14.630688","MEAN_MOTION":15.10017479,"ECCENTRICITY":0.0013493,"INCLINATION":97.536,"RA_OF_ASC_NODE":168.8115,"ARG_OF_PERICENTER":200.3948,"MEAN_ANOMALY":159.6744,"EPHEMERIS_TYPE":0,"CLASSIFICATION_TYPE":"U","NORAD_CAT_ID":68198,"ELEMENT_SET_NO":999,"REV_AT_EPOCH":267,"BSTAR":0.00069683,"MEAN_MOTION_DOT":0.00011297,"MEAN_MOTION_DDOT":0},{"OBJECT_NAME":"YUXING-3 06","OBJECT_ID":"2026-052B","EPOCH":"2026-04-02T17:04:47.140608","MEAN_MOTION":15.10161333,"ECCENTRICITY":0.0012477,"INCLINATION":97.5361,"RA_OF_ASC_NODE":168.683,"ARG_OF_PERICENTER":202.1721,"MEAN_ANOMALY":157.897,"EPHEMERIS_TYPE":0,"CLASSIFICATION_TYPE":"U","NORAD_CAT_ID":68199,"ELEMENT_SET_NO":999,"REV_AT_EPOCH":265,"BSTAR":0.00055221,"MEAN_MOTION_DOT":8.969e-5,"MEAN_MOTION_DDOT":0},{"OBJECT_NAME":"2026-052C","OBJECT_ID":"2026-052C","EPOCH":"2026-04-02T20:13:27.043968","MEAN_MOTION":15.10276793,"ECCENTRICITY":0.0012183,"INCLINATION":97.5358,"RA_OF_ASC_NODE":168.8167,"ARG_OF_PERICENTER":204.4688,"MEAN_ANOMALY":155.5964,"EPHEMERIS_TYPE":0,"CLASSIFICATION_TYPE":"U","NORAD_CAT_ID":68200,"ELEMENT_SET_NO":999,"REV_AT_EPOCH":266,"BSTAR":0.00040525,"MEAN_MOTION_DOT":6.583e-5,"MEAN_MOTION_DDOT":0},{"OBJECT_NAME":"2026-052D","OBJECT_ID":"2026-052D","EPOCH":"2026-04-02T20:10:21.342720","MEAN_MOTION":15.10513866,"ECCENTRICITY":0.0011443,"INCLINATION":97.536,"RA_OF_ASC_NODE":168.8164,"ARG_OF_PERICENTER":201.1365,"MEAN_ANOMALY":158.9393,"EPHEMERIS_TYPE":0,"CLASSIFICATION_TYPE":"U","NORAD_CAT_ID":68201,"ELEMENT_SET_NO":999,"REV_AT_EPOCH":267,"BSTAR":0.00065467,"MEAN_MOTION_DOT":0.00010748,"MEAN_MOTION_DDOT":0},{"OBJECT_NAME":"2026-052E","OBJECT_ID":"2026-052E","EPOCH":"2026-04-02T20:10:19.726176","MEAN_MOTION":15.10512727,"ECCENTRICITY":0.0011206,"INCLINATION":97.5364,"RA_OF_ASC_NODE":168.8177,"ARG_OF_PERICENTER":205.3203,"MEAN_ANOMALY":154.7479,"EPHEMERIS_TYPE":0,"CLASSIFICATION_TYPE":"U","NORAD_CAT_ID":68202,"ELEMENT_SET_NO":999,"REV_AT_EPOCH":267,"BSTAR":0.00064427,"MEAN_MOTION_DOT":0.00010575,"MEAN_MOTION_DDOT":0},{"OBJECT_NAME":"2026-052F","OBJECT_ID":"2026-052F","EPOCH":"2026-04-02T20:06:04.339008","MEAN_MOTION":15.1076958,"ECCENTRICITY":0.0010553,"INCLINATION":97.5354,"RA_OF_ASC_NODE":168.825,"ARG_OF_PERICENTER":197.4541,"MEAN_ANOMALY":162.6327,"EPHEMERIS_TYPE":0,"CLASSIFICATION_TYPE":"U","NORAD_CAT_ID":68203,"ELEMENT_SET_NO":999,"REV_AT_EPOCH":267,"BSTAR":0.00064875,"MEAN_MOTION_DOT":0.00010724,"MEAN_MOTION_DDOT":0}]
